OBJECT_NAME,OBJECT_ID,EPOCH,MEAN_MOTION,ECCENTRICITY,INCLINATION,RA_OF_ASC_NODE,ARG_OF_PERICENTER,MEAN_ANOMALY,EPHEMERIS_TYPE,CLASSIFICATION_TYPE,NORAD_CAT_ID,ELEMENT_SET_NO,REV_AT_EPOCH,BSTAR,MEAN_MOTION_DOT,MEAN_MOTION_DDOT
STARLINK-31588,2024-057R,2025-10-27T12:02:29.872896,15.27573883,.00006531,43.0060,218.9100,318.1141,41.9661,0,U,59335,999,8947,.4033167E-5,-.151E-5,0
STARLINK-31596,2024-057S,2025-10-27T12:08:02.524992,15.27574263,.00014455,43.0029,218.9366,276.3192,83.7495,0,U,59336,999,8947,.14454991E-4,.136E-5,0
STARLINK-31612,2024-057T,2025-10-27T04:50:34.248192,15.27575948,.0000647,42.9959,220.9572,319.9468,40.1336,0,U,59337,999,8942,.52159E-4,.1174E-4,0
STARLINK-31550,2024-057U,2025-10-27T19:34:59.900448,15.27555377,.00015744,43.0035,217.8289,274.5585,85.5087,0,U,59338,999,8951,-.41764402E-4,-.141E-4,0
STARLINK-31473,2024-057V,2025-10-27T04:33:55.130688,15.27574648,.00011908,43.0011,220.8745,281.6439,78.4279,0,U,59339,999,8942,.69569972E-4,.1653E-4,0
STARLINK-31562,2024-057W,2025-10-27T13:08:22.780896,15.27574209,.00019249,43.0066,233.9715,246.6232,113.4418,0,U,59340,999,8930,-.2555135E-5,-.333E-5,0
STARLINK-31600,2024-057X,2025-10-27T12:30:55.093536,15.27561105,.00007333,43.0042,226.8495,324.6705,35.4098,0,U,59341,999,8938,.10793501E-3,.2708E-4,0
STARLINK-31628,2024-057Y,2025-10-27T11:20:09.192768,15.27568357,.00008542,43.0012,219.5422,275.3005,84.7749,0,U,59342,999,8946,.23808068E-4,.393E-5,0
STARLINK-31605,2024-060A,2025-10-27T00:34:00.029280,15.27586129,.00013987,43.0069,284.0687,288.5940,71.4759,0,U,59348,999,8968,-.97788407E-4,-.2953E-4,0
STARLINK-31532,2024-060B,2025-10-27T01:05:12.628320,15.27577421,.00009593,43.0012,294.6128,247.4662,112.6089,0,U,59349,999,8967,.4009E-5,-.152E-5,0
STARLINK-31593,2024-060C,2025-10-27T06:39:16.514208,15.27583057,.0001302,43.0009,292.9145,261.9849,98.0855,0,U,59350,999,8966,.21461E-3,.5649E-4,0
STARLINK-31555,2024-060D,2025-10-27T01:16:21.395424,15.27452342,.00001886,43.0027,294.6718,204.5138,155.5704,0,U,59351,999,8967,.11039558E-2,.30122E-3,0
STARLINK-31561,2024-060E,2025-10-27T06:35:34.606176,15.27572611,.0000834,43.0002,292.8945,267.6797,92.3959,0,U,59352,999,8966,.13049E-3,.333E-4,0
STARLINK-31413,2024-060F,2025-10-27T00:39:18.525600,15.27572438,.00008843,43.0011,294.4747,279.1421,80.9330,0,U,59353,999,8962,.16835961E-4,.201E-5,0
STARLINK-31422,2024-060G,2025-10-27T01:47:45.731904,15.27574100,.00013287,43.0003,294.8362,281.3361,78.7342,0,U,59354,999,8962,.5450933E-5,-.112E-5,0
STARLINK-31416,2024-060H,2025-10-27T01:10:45.839424,15.27575538,.00012227,43.0020,294.6424,260.4389,99.6324,0,U,59355,999,8962,.18867049E-3,.4933E-4,0
STARLINK-31552,2024-060J,2025-10-27T06:24:40.883040,15.27585905,.0001608,42.9987,293.7123,267.7115,92.3553,0,U,59356,999,8965,-.11017E-3,-.3293E-4,0
STARLINK-31557,2024-060K,2025-10-26T23:59:17.384064,15.27577992,.00007352,43.0020,290.7755,252.2943,107.7829,0,U,59357,999,8966,.8416971E-4,.2055E-4,0
STARLINK-31559,2024-060L,2025-10-27T07:07:01.862112,15.27584747,.0001247,43.0000,293.0561,271.9245,88.1464,0,U,59358,999,8966,.15801E-3,.4089E-4,0
STARLINK-31501,2024-060M,2025-10-27T21:55:09.168384,15.27575547,.00018585,43.0058,289.9525,274.5653,85.4987,0,U,59359,999,8975,.49775127E-4,.1107E-4,0
STARLINK-31549,2024-060N,2025-10-27T06:50:22.469856,15.27571045,.0001408,43.0030,292.9698,256.2570,103.8125,0,U,59360,999,8966,.49841E-4,.1109E-4,0
STARLINK-31560,2024-060P,2025-10-27T06:04:19.653600,15.27578204,.000143,43.0002,293.5854,220.6117,139.4628,0,U,59361,999,8965,.31013E-4,.591E-5,0
STARLINK-31571,2024-060Q,2025-10-27T06:08:01.827744,15.27582245,.000136,43.0062,293.6122,253.1638,106.9065,0,U,59362,999,8965,.20273E-6,-.257E-5,0
STARLINK-31553,2024-060R,2025-10-27T05:52:45.984288,15.27576403,.0001436,43.0014,286.5929,271.5177,88.5510,0,U,59363,999,8973,.18765E-4,.254E-5,0
STARLINK-31547,2024-060S,2025-10-27T00:52:17.444928,15.27592721,.0000945,43.0017,283.2935,225.6438,134.4336,0,U,59364,999,8975,-.13567335E-3,-.3995E-4,0
STARLINK-31537,2024-060T,2025-10-27T06:19:07.876704,15.27591208,.0001686,43.0037,293.6673,274.5346,85.5313,0,U,59365,999,8965,-.53805E-4,-.1743E-4,0
STARLINK-31451,2024-060U,2025-10-27T08:18:58.899456,15.27587538,.00010981,43.0024,292.5697,265.4448,94.6279,0,U,59366,999,8967,.12717675E-3,.324E-4,0
STARLINK-31428,2024-060V,2025-10-27T00:44:51.584640,15.27579345,.00011917,43.0033,294.5028,271.8530,88.2185,0,U,59367,999,8962,-.2280261E-5,-.325E-5,0
STARLINK-31419,2024-060W,2025-10-27T00:54:07.273152,15.27564994,.00011004,43.0074,294.5525,263.5311,96.5416,0,U,59368,999,8962,.8089316E-5,-.4E-6,0
STARLINK-31583,2024-060X,2025-10-27T06:15:27.777888,15.27578300,.000056,43.0024,282.3979,294.5055,65.5738,0,U,59369,999,8978,-.14767E-4,-.668E-5,0
