STARLINK-31588          
1 59335U 24057R   25300.50173464 -.00000151  00000+0  40332-5 0  9997
2 59335  43.0060 218.9100 0000653 318.1141  41.9661 15.27573883 89478
STARLINK-31596          
1 59336U 24057S   25300.50558478  .00000136  00000+0  14455-4 0  9998
2 59336  43.0029 218.9366 0001445 276.3192  83.7495 15.27574263 89471
STARLINK-31612          
1 59337U 24057T   25300.20178528  .00001174  00000+0  52159-4 0  9996
2 59337  42.9959 220.9572 0000647 319.9468  40.1336 15.27575948 89424
STARLINK-31550          
1 59338U 24057U   25300.81597107 -.00001410  00000+0 -41764-4 0  9997
2 59338  43.0035 217.8289 0001574 274.5585  85.5087 15.27555377 89518
STARLINK-31473          
1 59339U 24057V   25300.19022142  .00001653  00000+0  69570-4 0  9993
2 59339  43.0011 220.8745 0001190 281.6439  78.4279 15.27574648 89421
STARLINK-31562          
1 59340U 24057W   25300.54748589 -.00000333  00000+0 -25551-5 0  9992
2 59340  43.0066 233.9715 0001924 246.6232 113.4418 15.27574209 89307
STARLINK-31600          
1 59341U 24057X   25300.52147099  .00002708  00000+0  10794-3 0  9997
2 59341  43.0042 226.8495 0000733 324.6705  35.4098 15.27561105 89383
STARLINK-31628          
1 59342U 24057Y   25300.47232862  .00000393  00000+0  23808-4 0  9994
2 59342  43.0012 219.5422 0000854 275.3005  84.7749 15.27568357 89464
STARLINK-31605          
1 59348U 24060A   25300.02361145 -.00002953  00000+0 -97788-4 0  9996
2 59348  43.0069 284.0687 0001398 288.5940  71.4759 15.27586129 89685
STARLINK-31532          
1 59349U 24060B   25300.04528505 -.00000152  00000+0  40090-5 0  9997
2 59349  43.0012 294.6128 0000959 247.4662 112.6089 15.27577421 89676
STARLINK-31593          
1 59350U 24060C   25300.27727447  .00005649  00000+0  21461-3 0  9994
2 59350  43.0009 292.9145 0001302 261.9849  98.0855 15.27583057 89664
STARLINK-31555          
1 59351U 24060D   25300.05302541  .00030122  00000+0  11040-2 0  9990
2 59351  43.0027 294.6718 0000188 204.5138 155.5704 15.27452342 89670
STARLINK-31561          
1 59352U 24060E   25300.27470609  .00003330  00000+0  13049-3 0  9999
2 59352  43.0002 292.8945 0000834 267.6797  92.3959 15.27572611 89666
STARLINK-31413          
1 59353U 24060F   25300.02729775  .00000201  00000+0  16836-4 0  9996
2 59353  43.0011 294.4747 0000884 279.1421  80.9330 15.27572438 89621
STARLINK-31422          
1 59354U 24060G   25300.07483486 -.00000112  00000+0  54509-5 0  9990
2 59354  43.0003 294.8362 0001328 281.3361  78.7342 15.27574100 89628
STARLINK-31416          
1 59355U 24060H   25300.04914166  .00004933  00000+0  18867-3 0  9991
2 59355  43.0020 294.6424 0001222 260.4389  99.6324 15.27575538 89624
STARLINK-31552          
1 59356U 24060J   25300.26713985 -.00003293  00000+0 -11017-3 0  9992
2 59356  42.9987 293.7123 0001608 267.7115  92.3553 15.27585905 89652
STARLINK-31557          
1 59357U 24060K   25299.99950676  .00002055  00000+0  84170-4 0  9994
2 59357  43.0020 290.7755 0000735 252.2943 107.7829 15.27577992 89664
STARLINK-31559          
1 59358U 24060L   25300.29654933  .00004089  00000+0  15801-3 0  9991
2 59358  43.0000 293.0561 0001247 271.9245  88.1464 15.27584747 89669
STARLINK-31501          
1 59359U 24060M   25300.91330056  .00001107  00000+0  49775-4 0  9994
2 59359  43.0058 289.9525 0001858 274.5653  85.4987 15.27575547 89755
STARLINK-31549          
1 59360U 24060N   25300.28498229  .00001109  00000+0  49841-4 0  9999
2 59360  43.0030 292.9698 0001408 256.2570 103.8125 15.27571045 89666
STARLINK-31560          
1 59361U 24060P   25300.25300525  .00000591  00000+0  31013-4 0  9994
2 59361  43.0002 293.5854 0001430 220.6117 139.4628 15.27578204 89650
STARLINK-31571          
1 59362U 24060Q   25300.25557671 -.00000257  00000+0  20273-6 0  9999
2 59362  43.0062 293.6122 0001360 253.1638 106.9065 15.27582245 89651
STARLINK-31553          
1 59363U 24060R   25300.24497667  .00000254  00000+0  18765-4 0  9994
2 59363  43.0014 286.5929 0001436 271.5177  88.5510 15.27576403 89739
STARLINK-31547          
1 59364U 24060S   25300.03631302 -.00003995  00000+0 -13567-3 0  9999
2 59364  43.0017 283.2935 0000945 225.6438 134.4336 15.27592721 89758
STARLINK-31537          
1 59365U 24060T   25300.26328561 -.00001743  00000+0 -53805-4 0  9994
2 59365  43.0037 293.6673 0001686 274.5346  85.5313 15.27591208 89658
STARLINK-31451          
1 59366U 24060U   25300.34651504  .00003240  00000+0  12718-3 0  9999
2 59366  43.0024 292.5697 0001098 265.4448  94.6279 15.27587538 89673
STARLINK-31428          
1 59367U 24060V   25300.03115260 -.00000325  00000+0 -22803-5 0  9991
2 59367  43.0033 294.5028 0001191 271.8530  88.2185 15.27579345 89628
STARLINK-31419          
1 59368U 24060W   25300.03758418 -.00000040  00000+0  80893-5 0  9996
2 59368  43.0074 294.5525 0001100 263.5311  96.5416 15.27564994 89624
STARLINK-31583          
1 59369U 24060X   25300.26073817 -.00000668  00000+0 -14767-4 0  9998
2 59369  43.0024 282.3979 0000560 294.5055  65.5738 15.27578300 89782
